[Satellite]
VERSION=1.1
NAME=MOLNIYA 1-56
NICKNAME=MOLNIYA 1-56
TLE1=1 13890U 83019A   15053.31144719 -.00000312  00000-0  00000+0 0  9992
TLE2=2 13890  63.9484 357.0935 7134042 266.9203 346.3792  1.99836179233193
